GOES-18
1 51850U 22021A   26017.77077742  .00000000  00000-0  00000-0 0  9993
2 51850   0.0153  88.5748 0000809 274.2470 254.8508  1.00272004  5084
MERIDIAN-10
1 52145U 22030A   26017.43430329  .00000314  00000-0  00000-0 0  9996
2 52145  62.6680 156.8312 6748300 273.0192  17.8735  2.00601044 28003
BRO-6
1 52422U 22047AE  26017.99059378  .00012879  00000-0  29682-3 0  9993
2 52422  97.3503 107.1242 0003411 245.2290 114.8603 15.42718254207948
STEP CUBELAB-II
1 52897U 22065D   26017.96064205  .00000674  00000-0  14078-3 0  9994
2 52897  98.1965 162.5615 0009479 130.7975 229.4051 14.62971291189539
RANDEV
1 52898U 22065E   26017.93226059  .00000610  00000-0  12739-3 0  9991
2 52898  98.1952 162.8190 0008782 131.1375 229.0586 14.63334222189270
SNUGLITE-II
1 52899U 22065F   26017.89185134  .00001026  00000-0  20506-3 0  9998
2 52899  98.1953 163.2295 0008371 131.0246 229.1681 14.63953645189007
MIMAN
1 52900U 22065G   26017.86425944  .00000542  00000-0  11856-3 0  9994
2 52900  98.2005 161.3349 0008519 130.8727 229.3213 14.61608089188484
GREENCUBE (IO-117)
1 53106U 22080B   25051.21822557 -.00000003  00000-0  00000 0 0  9995
2 53106  70.1434 106.3440 0008542  48.0089 312.1297  6.42557744 61200
ROBUSTA 1F (MTCUBE-2)
1 53109U 22080E   26017.37258640 -.00000003  00000-0  00000-0 0  9995
2 53109  70.1607 350.6876 0009146 320.3986  39.6005  6.42583238 82371
BLUEWALKER-3
1 53807U 22111AL  26017.94285497  .00006323  00000-0  18648-3 0  9998
2 53807  53.2311  18.3608 0008293  73.9408 286.2509 15.36322558187096
ELEKTRO-L4
1 55506U 23016A   26017.21540815 -.00000042  00000-0  00000-0 0  9992
2 55506   0.0106 226.1060 0002667  42.7579  91.0907  1.00271690 10825
SHARJAHSAT-1
1 55104U 23001CZ  26017.96787022  .00018449  00000-0  42181-3 0  9993
2 55104  97.3409  85.1402 0005215 293.2082  66.8616 15.42867752169284
METEOR M2-3
1 57166U 23091A   26017.94727694  .00000013  00000-0  24497-4 0  9998
2 57166  98.6325  75.8449 0003030 238.0843 122.0041 14.24030798133130
STRATOSAT-TK1 (RS52S)
1 57167U 23091B   26010.59363612  .08733485  25619-5  12458-2 0  9993
2 57167  97.4978  91.1570 0009532 282.8011  77.2220 16.34765267141469
RESHUCUBE-2 (RS37S)
1 57168U 23091C   26017.91568742  .00010767  00000-0  45566-3 0  9990
2 57168  97.5262  79.7062 0010805 275.3243  84.6760 15.23319491141354
RASSVET 1-1
1 57169U 23091D   26017.91676250  .00008585  00000-0  38505-3 0  9995
2 57169  97.5340  79.2658 0009359 266.9721  93.0444 15.21420807141295
RASSVET 1-2
1 57170U 23091E   26017.91689632  .00008575  00000-0  38468-3 0  9992
2 57170  97.5345  79.3328 0008267 256.9536 103.0777 15.21421284141298
RASSVET 1-3
1 57171U 23091F   26017.91660542  .00008516  00000-0  38189-3 0  9997
2 57171  97.5342  79.2906 0010166 279.0439  80.9645 15.21421113141294
UMKA-1 (RS40S)
1 57172U 23091G   26017.92055629  .00006690  00000-0  32504-3 0  9999
2 57172  97.5288  77.2324 0011924 285.1825  74.8090 15.18715643141180
SATURN (RS43S)
1 57174U 23091J   26017.96433006  .00004348  00000-0  25200-3 0  9997
2 57174  97.5296  73.1452 0012437 310.5866  49.4282 15.12651828140915
CUBEBEL-2 (EU11S)
1 57175U 23091K   26017.95112781  .00011471  00000-0  46057-3 0  9999
2 57175  97.5285  80.0886 0009350 286.8007  73.2205 15.25090705141370
SITRO-AIS-5 (ANOKHIN)
1 57176U 23091L   26017.93678471  .00011164  00000-0  44332-3 0  9994
2 57176  97.5291  80.6608 0011022 272.7188  87.2788 15.25452517141407
ZORKIY-2M
1 57177U 23091M   26017.96891792  .00007615  00000-0  37141-3 0  9997
2 57177  97.5329  77.4774 0012565 281.3848  78.5974 15.18530730141181
CUBESX-HSE-3 (RS42S)
1 57178U 23091N   26017.93441369  .00012797  00000-0  48706-3 0  9992
2 57178  97.5321  81.9226 0010484 262.7541  97.2505 15.26835800141461
PHI-DEMO
1 57181U 23091R   26017.93039206  .00003034  00000-0  17378-3 0  9994
2 57181  97.5305  73.8100 0014164 299.5133  60.4685 15.13298531140956
MONITOR-3 (RS58S)
1 57180U 23091Q   26017.92775134  .00010434  00000-0  42922-3 0  9994
2 57180  97.5314  80.4757 0011262 268.4979  91.4968 15.24284738141377
NORBY-2
1 57179U 23091P   26017.97548880  .00004693  00000-0  25414-3 0  9990
2 57179  97.5334  75.4118 0013891 287.3662  72.6050 15.15032736141036
MONITOR-4 (RS57S)
1 57182U 23091S   26017.98116804  .00011123  00000-0  45627-3 0  9996
2 57182  97.5309  80.4915 0011276 268.9130  91.0815 15.24360215141381
MONITOR-2 (RS39S)
1 57184U 23091U   26017.96792042  .00005581  00000-0  28405-3 0  9996
2 57184  97.5313  77.2170 0010127 275.8892  84.1187 15.17185303141167
SVYATOBOR-1 (RS60S)
1 57187U 23091X   26017.95315880  .00008698  00000-0  36648-3 0  9999
2 57187  97.5321  81.0895 0008640 258.8976 101.1289 15.23553338141412
VIZARD-METEO (RS38S)
1 57189U 23091Z   26017.93851878  .00015289  00000-0  51830-3 0  9995
2 57189  97.5312  84.8416 0007012 241.8004 118.2528 15.30622217141663
NANOZOND-1 (RS49S)
1 57190U 23091AA  26017.95086326  .00080215  00000-0  10173-2 0  9992
2 57190  97.5222  94.7512 0004322 223.0667 137.0251 15.59173999142336
SITRO-AIS-6 (CHIRKIN)
1 57192U 23091AC  26017.95934723  .00005876  00000-0  24880-3 0  9998
2 57192  97.5294  80.4566 0010798 273.2739  86.7263 15.23515099141399
SITRO-AIS-8 (SHCHUKIN)
1 57193U 23091AD  26017.92517962  .00011860  00000-0  44282-3 0  9996
2 57193  97.5286  81.7014 0010325 270.0102  89.9954 15.27492826141475
SITRO-AIS-7 (SHEFFER)
1 57194U 23091AE  26017.93642476  .00005982  00000-0  25487-3 0  9991
2 57194  97.5295  80.3226 0010600 274.8582  85.1444 15.23295371141380
AVION KALUGA 650 (RS24S)
1 57195U 23091AF  26017.94919431  .00005607  00000-0  27574-3 0  9994
2 57195  97.5327  78.1573 0009303 274.7260  85.2911 15.18389623141217
SITRO-AIS-10 (KATYS)
1 57199U 23091AK  26017.98915569  .00017649  00000-0  56713-3 0  9996
2 57199  97.5301  85.4740 0006645 244.6510 115.4044 15.32318633141717
SITRO-AIS-9 (BURDAEV)
1 57201U 23091AM  26017.97571668  .00017040  00000-0  55314-3 0  9998
2 57201  97.5300  85.2875 0006658 245.1919 114.8630 15.32000080141707
UTMN-2 (RS27S)
1 57203U 23091AP  26017.97260631  .00012330  00000-0  45684-3 0  9991
2 57203  97.5313  83.4081 0007605 247.3881 112.6553 15.27759797141572
SITRO-AIS-12 (FARTUSHNY)
1 57204U 23091AQ  26017.92675556  .00017246  00000-0  55596-3 0  9997
2 57204  97.5310  85.6208 0006622 237.8225 122.2375 15.32220585141718
AHMAT-1 (RS41S)
1 57206U 23091AS  26017.93399525  .00037276  00000-0  78557-3 0  9996
2 57206  97.5260  90.5528 0005039 226.1883 133.8949 15.45149270142065
SITRO-AIS-11 (SMIRENNY)
1 57208U 23091AU  26017.97580959  .00017709  00000-0  56544-3 0  9996
2 57208  97.5308  85.8370 0006564 237.1254 122.9356 15.32523026141735
KUZGTU-1 (RS47S)
1 57217U 23091AV  26017.94040301  .00010950  00000-0  42985-3 0  9990
2 57217  97.5295  81.1463 0010593 266.1929  93.8098 15.25846500141433
STRATOSAT-TK1-E (RS52SE)
1 57323U 23091AX  26017.92599973  .00069837  00000-0  10435-2 0  9992
2 57323  97.5247  91.8993 0006707 230.5580 129.5080 15.54770614140020
STRATOSAT-TK1-D (RS52SD)
1 57326U 23091BA  26017.96894476  .00057311  00000-0  94404-3 0  9998
2 57326  97.5228  91.1566 0006063 231.4397 128.6313 15.52124026139825
METEOR M2-4
1 59051U 24039A   26017.93192273  .00000011  00000-0  24485-4 0  9999
2 59051  98.6818 339.2829 0006062 241.3229 118.7340 14.22407640 97904
PARS-1
1 59065U 24039Q   26017.95664884  .00010868  00000-0  25744-3 0  9997
2 59065  97.4672 354.6907 0008280 306.5246  53.5237 15.41912713105465
SITRO-AIS-25
1 59066U 24039R   26017.96286440  .00005895  00000-0  47008-3 0  9998
2 59066  95.3962 131.9302 0149888 132.4993 228.9010 14.92006513102310
SITRO-AIS-26
1 59067U 24039S   26017.94507402  .00005598  00000-0  44822-3 0  9992
2 59067  95.3966 131.8439 0150209 132.9387 228.4554 14.91833463102304
SITRO-AIS-27
1 59068U 24039T   26017.95563060  .00005688  00000-0  45189-3 0  9993
2 59068  95.3965 132.0573 0149321 131.8710 229.5370 14.92211775102324
SITRO-AIS-28
1 59071U 24039U   26017.93656152  .00006465  00000-0  51268-3 0  9999
2 59071  95.3967 132.0832 0149336 131.7649 229.6454 14.92248894102320
SONATE-2
1 59112U 24043Q   26017.95932298  .00027172  00000-0  53231-3 0  9990
2 59112  97.5341 160.6288 0008832  37.0401 323.1457 15.47320437104574
HORS-1
1 57188U 23091Y   26017.94651846  .00008846  00000-0  37211-3 0  9996
2 57188  97.5301  80.8689 0008164 258.8302 101.2017 15.23603442141415
HORS-2
1 57196U 23091AG  26017.92542554  .00012425  00000-0  46342-3 0  9991
2 57196  97.5314  83.2121 0007611 252.6802 107.3604 15.27538396141552
ZORKIY-2M 6
1 59774U 24092B   26017.92295934  .00009283  00000-0  37290-3 0  9994
2 59774  97.6304 143.5057 0009448 354.8763   5.2376 15.25138387 92602
ZORKIY-2M 4
1 59775U 24092C   26017.96861792  .00010658  00000-0  41985-3 0  9994
2 59775  97.6440 144.9603 0009585 356.8509   3.2667 15.25753284 92642
SITRO-AIS-53
1 59776U 24092D   26017.86587442  .00016499  00000-0  56077-3 0  9998
2 59776  97.6386 145.6275 0007775 326.8114  33.2637 15.30517133 92707
SITRO-AIS-54
1 59777U 24092E   26017.87245728  .00016684  00000-0  56830-3 0  9991
2 59777  97.6385 145.6105 0008031 327.3069  32.7673 15.30441778 92705
SITRO-AIS-56
1 59778U 24092F   26017.84631304  .00016958  00000-0  56819-3 0  9999
2 59778  97.6382 145.7643 0008103 327.1027  32.9709 15.30971418 92715
RASSVET 1-4
1 59779U 24092G   26017.90988472  .00000162  00000-0  77236-4 0  9995
2 59779  98.6526 137.2781 0010882 291.8092  68.1933 14.31764728 87394
RASSVET 1-5
1 59780U 24092H   26017.90979389  .00000169  00000-0  79884-4 0  9992
2 59780  98.6532 137.2722 0011258 293.2236  66.7761 14.31763479 87397
RASSVET 1-6
1 59781U 24092J   26017.90845296  .00000166  00000-0  78937-4 0  9997
2 59781  98.6526 137.2755 0011148 293.5171  66.4841 14.31764531 87392
SITRO-AIS-55
1 59809U 24092K   26017.84500028  .00016876  00000-0  57696-3 0  9995
2 59809  97.6377 145.4468 0008168 327.7853  32.2888 15.30318539 92192
